INTELSAT 11 (IS-11)     
1 32253U 07044B   25334.10692631 -.00000059  00000+0  00000+0 0  9998
2 32253   3.0442  81.1207 0009158 158.9609 148.9923  0.99048258 66474
HORIZONS-2              
1 32388U 07063B   25334.06279258 -.00000232  00000+0  00000+0 0  9992
2 32388   2.0857  83.1048 0004740 177.6763 117.2266  1.00273397 65811
DIRECTV 11              
1 32729U 08013A   25333.98643880 -.00000104  00000+0  00000+0 0  9991
2 32729   0.0276 151.2241 0000360  84.4973  89.3449  1.00268706 43598
GALAXY 18 (G-18)        
1 32951U 08024A   25334.05308587  .00000000  00000+0  00000+0 0  9995
2 32951   0.0217 316.4471 0003281 294.0993  74.7205  1.00271559 43853
INTELSAT 25 (IS-25)     
1 33153U 08034A   25334.07119931 -.00000202  00000+0  00000+0 0  9991
2 33153   2.1920  82.7949 0005113 173.2781 167.2726  1.00272489 63697
GALAXY 19 (G-19)        
1 33376U 08045A   25334.12957483 -.00000118  00000+0  00000+0 0  9994
2 33376   0.0445 110.9637 0003037 143.6963 124.2662  1.00270768 62900
FM-5                    
1 35493U 09034A   25334.06036590 -.00000179  00000+0  00000+0 0  9992
2 35493   0.0241 280.2819 0001386 231.9003 212.6207  1.00274064 44641
INTELSAT 14 (IS-14)     
1 36097U 09064A   25334.06851263 -.00000252  00000+0  00000+0 0  9990
2 36097   0.0145  16.7917 0002558 230.6857 161.4022  1.00271328 58608
