{
  "type": "FeatureCollection",
  "features": [
    {
      "type": "Feature",
      "properties": {
        "OBJECT_NAME": "INTELSAT 11 (IS-11)",
        "OBJECT_ID": "2007-044B",
        "EPOCH": "2025-11-30T02:33:58.433184",
        "MEAN_MOTION": 0.99048258,
        "ECCENTRICITY": 0.0009158,
        "INCLINATION": 3.0442,
        "RA_OF_ASC_NODE": 81.1207,
        "ARG_OF_PERICENTER": 158.9609,
        "MEAN_ANOMALY": 148.9923,
        "EPHEMERIS_TYPE": 0,
        "CLASSIFICATION_TYPE": "U",
        "NORAD_CAT_ID": 32253,
        "ELEMENT_SET_NO": 999,
        "REV_AT_EPOCH": 6647,
        "BSTAR": 0,
        "MEAN_MOTION_DOT": -5.9e-07,
        "MEAN_MOTION_DDOT": 0,
        "norad_id": 32253,
        "name": "INTELSAT 11 (IS-11)",
        "group": "intelsat",
        "longitude_deg": NaN,
        "latitude_deg": NaN,
        "alt_km": NaN,
        "orbit_class": "HEO",
        "timestamp": "2025-11-30T09:33:02.501675+00:00"
      },
      "geometry": {
        "type": "Point",
        "coordinates": [
          NaN,
          NaN
        ]
      }
    },
    {
      "type": "Feature",
      "properties": {
        "OBJECT_NAME": "HORIZONS-2",
        "OBJECT_ID": "2007-063B",
        "EPOCH": "2025-11-30T01:30:25.278912",
        "MEAN_MOTION": 1.00273397,
        "ECCENTRICITY": 0.000474,
        "INCLINATION": 2.0857,
        "RA_OF_ASC_NODE": 83.1048,
        "ARG_OF_PERICENTER": 177.6763,
        "MEAN_ANOMALY": 117.2266,
        "EPHEMERIS_TYPE": 0,
        "CLASSIFICATION_TYPE": "U",
        "NORAD_CAT_ID": 32388,
        "ELEMENT_SET_NO": 999,
        "REV_AT_EPOCH": 6581,
        "BSTAR": 0,
        "MEAN_MOTION_DOT": -2.32e-06,
        "MEAN_MOTION_DDOT": 0,
        "norad_id": 32388,
        "name": "HORIZONS-2",
        "group": "intelsat",
        "longitude_deg": NaN,
        "latitude_deg": NaN,
        "alt_km": NaN,
        "orbit_class": "HEO",
        "timestamp": "2025-11-30T09:33:02.501761+00:00"
      },
      "geometry": {
        "type": "Point",
        "coordinates": [
          NaN,
          NaN
        ]
      }
    },
    {
      "type": "Feature",
      "properties": {
        "OBJECT_NAME": "DIRECTV 11",
        "OBJECT_ID": "2008-013A",
        "EPOCH": "2025-11-29T23:40:28.312320",
        "MEAN_MOTION": 1.00268706,
        "ECCENTRICITY": 3.6e-05,
        "INCLINATION": 0.0276,
        "RA_OF_ASC_NODE": 151.2241,
        "ARG_OF_PERICENTER": 84.4973,
        "MEAN_ANOMALY": 89.3449,
        "EPHEMERIS_TYPE": 0,
        "CLASSIFICATION_TYPE": "U",
        "NORAD_CAT_ID": 32729,
        "ELEMENT_SET_NO": 999,
        "REV_AT_EPOCH": 4359,
        "BSTAR": 0,
        "MEAN_MOTION_DOT": -1.04e-06,
        "MEAN_MOTION_DDOT": 0,
        "norad_id": 32729,
        "name": "DIRECTV 11",
        "group": "intelsat",
        "longitude_deg": NaN,
        "latitude_deg": NaN,
        "alt_km": NaN,
        "orbit_class": "HEO",
        "timestamp": "2025-11-30T09:33:02.501809+00:00"
      },
      "geometry": {
        "type": "Point",
        "coordinates": [
          NaN,
          NaN
        ]
      }
    },
    {
      "type": "Feature",
      "properties": {
        "OBJECT_NAME": "GALAXY 18 (G-18)",
        "OBJECT_ID": "2008-024A",
        "EPOCH": "2025-11-30T01:16:26.619168",
        "MEAN_MOTION": 1.00271559,
        "ECCENTRICITY": 0.0003281,
        "INCLINATION": 0.0217,
        "RA_OF_ASC_NODE": 316.4471,
        "ARG_OF_PERICENTER": 294.0993,
        "MEAN_ANOMALY": 74.7205,
        "EPHEMERIS_TYPE": 0,
        "CLASSIFICATION_TYPE": "U",
        "NORAD_CAT_ID": 32951,
        "ELEMENT_SET_NO": 999,
        "REV_AT_EPOCH": 4385,
        "BSTAR": 0,
        "MEAN_MOTION_DOT": 0,
        "MEAN_MOTION_DDOT": 0,
        "norad_id": 32951,
        "name": "GALAXY 18 (G-18)",
        "group": "intelsat",
        "longitude_deg": NaN,
        "latitude_deg": NaN,
        "alt_km": NaN,
        "orbit_class": "HEO",
        "timestamp": "2025-11-30T09:33:02.501867+00:00"
      },
      "geometry": {
        "type": "Point",
        "coordinates": [
          NaN,
          NaN
        ]
      }
    },
    {
      "type": "Feature",
      "properties": {
        "OBJECT_NAME": "INTELSAT 25 (IS-25)",
        "OBJECT_ID": "2008-034A",
        "EPOCH": "2025-11-30T01:42:31.620384",
        "MEAN_MOTION": 1.00272489,
        "ECCENTRICITY": 0.0005113,
        "INCLINATION": 2.192,
        "RA_OF_ASC_NODE": 82.7949,
        "ARG_OF_PERICENTER": 173.2781,
        "MEAN_ANOMALY": 167.2726,
        "EPHEMERIS_TYPE": 0,
        "CLASSIFICATION_TYPE": "U",
        "NORAD_CAT_ID": 33153,
        "ELEMENT_SET_NO": 999,
        "REV_AT_EPOCH": 6369,
        "BSTAR": 0,
        "MEAN_MOTION_DOT": -2.02e-06,
        "MEAN_MOTION_DDOT": 0,
        "norad_id": 33153,
        "name": "INTELSAT 25 (IS-25)",
        "group": "intelsat",
        "longitude_deg": NaN,
        "latitude_deg": NaN,
        "alt_km": NaN,
        "orbit_class": "HEO",
        "timestamp": "2025-11-30T09:33:02.501934+00:00"
      },
      "geometry": {
        "type": "Point",
        "coordinates": [
          NaN,
          NaN
        ]
      }
    },
    {
      "type": "Feature",
      "properties": {
        "OBJECT_NAME": "GALAXY 19 (G-19)",
        "OBJECT_ID": "2008-045A",
        "EPOCH": "2025-11-30T03:06:35.265312",
        "MEAN_MOTION": 1.00270768,
        "ECCENTRICITY": 0.0003037,
        "INCLINATION": 0.0445,
        "RA_OF_ASC_NODE": 110.9637,
        "ARG_OF_PERICENTER": 143.6963,
        "MEAN_ANOMALY": 124.2662,
        "EPHEMERIS_TYPE": 0,
        "CLASSIFICATION_TYPE": "U",
        "NORAD_CAT_ID": 33376,
        "ELEMENT_SET_NO": 999,
        "REV_AT_EPOCH": 6290,
        "BSTAR": 0,
        "MEAN_MOTION_DOT": -1.18e-06,
        "MEAN_MOTION_DDOT": 0,
        "norad_id": 33376,
        "name": "GALAXY 19 (G-19)",
        "group": "intelsat",
        "longitude_deg": NaN,
        "latitude_deg": NaN,
        "alt_km": NaN,
        "orbit_class": "HEO",
        "timestamp": "2025-11-30T09:33:02.501995+00:00"
      },
      "geometry": {
        "type": "Point",
        "coordinates": [
          NaN,
          NaN
        ]
      }
    },
    {
      "type": "Feature",
      "properties": {
        "OBJECT_NAME": "FM-5",
        "OBJECT_ID": "2009-034A",
        "EPOCH": "2025-11-30T01:26:55.613760",
        "MEAN_MOTION": 1.00274064,
        "ECCENTRICITY": 0.0001386,
        "INCLINATION": 0.0241,
        "RA_OF_ASC_NODE": 280.2819,
        "ARG_OF_PERICENTER": 231.9003,
        "MEAN_ANOMALY": 212.6207,
        "EPHEMERIS_TYPE": 0,
        "CLASSIFICATION_TYPE": "U",
        "NORAD_CAT_ID": 35493,
        "ELEMENT_SET_NO": 999,
        "REV_AT_EPOCH": 4464,
        "BSTAR": 0,
        "MEAN_MOTION_DOT": -1.79e-06,
        "MEAN_MOTION_DDOT": 0,
        "norad_id": 35493,
        "name": "FM-5",
        "group": "intelsat",
        "longitude_deg": NaN,
        "latitude_deg": NaN,
        "alt_km": NaN,
        "orbit_class": "HEO",
        "timestamp": "2025-11-30T09:33:02.502135+00:00"
      },
      "geometry": {
        "type": "Point",
        "coordinates": [
          NaN,
          NaN
        ]
      }
    },
    {
      "type": "Feature",
      "properties": {
        "OBJECT_NAME": "INTELSAT 14 (IS-14)",
        "OBJECT_ID": "2009-064A",
        "EPOCH": "2025-11-30T01:38:39.491232",
        "MEAN_MOTION": 1.00271328,
        "ECCENTRICITY": 0.0002558,
        "INCLINATION": 0.0145,
        "RA_OF_ASC_NODE": 16.7917,
        "ARG_OF_PERICENTER": 230.6857,
        "MEAN_ANOMALY": 161.4022,
        "EPHEMERIS_TYPE": 0,
        "CLASSIFICATION_TYPE": "U",
        "NORAD_CAT_ID": 36097,
        "ELEMENT_SET_NO": 999,
        "REV_AT_EPOCH": 5860,
        "BSTAR": 0,
        "MEAN_MOTION_DOT": -2.52e-06,
        "MEAN_MOTION_DDOT": 0,
        "norad_id": 36097,
        "name": "INTELSAT 14 (IS-14)",
        "group": "intelsat",
        "longitude_deg": NaN,
        "latitude_deg": NaN,
        "alt_km": NaN,
        "orbit_class": "HEO",
        "timestamp": "2025-11-30T09:33:02.502326+00:00"
      },
      "geometry": {
        "type": "Point",
        "coordinates": [
          NaN,
          NaN
        ]
      }
    }
  ]
}